ONEWEB-0349             
1 49281U 21090C   24321.12769544  .00000061  00000+0  11801-3 0  9996
2 49281  87.9289  29.4472 0002002 100.9134 259.2225 13.20772178154813
ONEWEB-0353             
1 49282U 21090D   24320.48718601 -.00000138  00000+0 -40611-3 0  9991
2 49282  87.9035  44.7838 0001960  95.2497 264.8856 13.14501457151552
ONEWEB-0356             
1 49283U 21090E   24321.12611637  .00000090  00000+0  18938-3 0  9997
2 49283  87.9287  29.4408 0002671 116.6540 243.4867 13.20770119154819
ONEWEB-0358             
1 49284U 21090F   24320.62580422  .00000067  00000+0  13254-3 0  9999
2 49284  87.9288  29.5282 0001887 109.9281 250.2056 13.20769277154186
ONEWEB-0359             
1 49285U 21090G   24321.15294756  .00000163  00000+0  36826-3 0  9998
2 49285  87.9286  29.4393 0001460 109.7131 250.4159 13.20771149155511
ONEWEB-0360             
1 49286U 21090H   24320.91620244  .00000091  00000+0  19277-3 0  9998
2 49286  87.9284  29.4914 0001691 103.2308 256.9014 13.20772754153512
ONEWEB-0361             
1 49287U 21090J   24321.12454049  .00000081  00000+0  16686-3 0  9991
2 49287  87.9288  29.4450 0001989 102.6991 257.4365 13.20771545154820
ONEWEB-0362             
1 49288U 21090K   24320.99836739  .00000062  00000+0  12204-3 0  9997
2 49288  87.9187  59.9618 0001494  95.7898 264.3405 13.19727107151475
